[
  {
    "areaCode": 201,
    "longitude": 40.83885,
    "latitude": -74.04567813
  },
  {
    "areaCode": 202,
    "longitude": 38.89511,
    "latitude": -77.03637
  },
  {
    "areaCode": 203,
    "longitude": 41.29179813,
    "latitude": -73.12245313
  },
  {
    "areaCode": 205,
    "longitude": 33.42767111,
    "latitude": -86.88647333
  },
  {
    "areaCode": 206,
    "longitude": 47.56402714,
    "latitude": -122.3489757
  },
  {
    "areaCode": 207,
    "longitude": 44.000005,
    "latitude": -69.987965
  },
  {
    "areaCode": 208,
    "longitude": 44.415674,
    "latitude": -115.558462
  },
  {
    "areaCode": 209,
    "longitude": 37.604049,
    "latitude": -120.999087
  },
  {
    "areaCode": 210,
    "longitude": 29.42412,
    "latitude": -98.49363
  },
  {
    "areaCode": 212,
    "longitude": 40.71427,
    "latitude": -74.00597
  },
  {
    "areaCode": 213,
    "longitude": 34.05223,
    "latitude": -118.24368
  },
  {
    "areaCode": 214,
    "longitude": 32.86350083,
    "latitude": -96.83776792
  },
  {
    "areaCode": 215,
    "longitude": 40.05372,
    "latitude": -74.99628
  },
  {
    "areaCode": 216,
    "longitude": 41.4749,
    "latitude": -81.61689545
  },
  {
    "areaCode": 217,
    "longitude": 39.91789571,
    "latitude": -88.89502857
  },
  {
    "areaCode": 218,
    "longitude": 46.29681,
    "latitude": -94.05581
  },
  {
    "areaCode": 219,
    "longitude": 41.56626333,
    "latitude": -87.2636
  },
  {
    "areaCode": 220,
    "longitude": 39.74919875,
    "latitude": -82.66145
  },
  {
    "areaCode": 224,
    "longitude": 42.14730875,
    "latitude": -87.94760563
  },
  {
    "areaCode": 225,
    "longitude": 30.45075,
    "latitude": -91.15455
  },
  {
    "areaCode": 228,
    "longitude": 30.38862667,
    "latitude": -88.84521333
  },
  {
    "areaCode": 229,
    "longitude": 31.205925,
    "latitude": -83.71803
  },
  {
    "areaCode": 231,
    "longitude": 43.02465,
    "latitude": -85.18177333
  },
  {
    "areaCode": 234,
    "longitude": 41.06350444,
    "latitude": -81.31462611
  },
  {
    "areaCode": 239,
    "longitude": 26.45611429,
    "latitude": -81.80060857
  },
  {
    "areaCode": 240,
    "longitude": 39.047505,
    "latitude": -77.12127929
  },
  {
    "areaCode": 248,
    "longitude": 42.54372462,
    "latitude": -83.26242846
  },
  {
    "areaCode": 251,
    "longitude": 30.71658,
    "latitude": -88.06097
  },
  {
    "areaCode": 252,
    "longitude": 35.42039,
    "latitude": -77.43325
  },
  {
    "areaCode": 253,
    "longitude": 47.228641,
    "latitude": -122.365951
  },
  {
    "areaCode": 254,
    "longitude": 31.204726,
    "latitude": -97.579188
  },
  {
    "areaCode": 256,
    "longitude": 34.41824333,
    "latitude": -86.63888167
  },
  {
    "areaCode": 260,
    "longitude": 41.1306,
    "latitude": -85.12886
  },
  {
    "areaCode": 262,
    "longitude": 42.991375,
    "latitude": -88.039892
  },
  {
    "areaCode": 267,
    "longitude": 40.05372,
    "latitude": -74.99628
  },
  {
    "areaCode": 269,
    "longitude": 42.27005333,
    "latitude": -85.44846333
  },
  {
    "areaCode": 270,
    "longitude": 37.44057,
    "latitude": -87.00663143
  },
  {
    "areaCode": 272,
    "longitude": 41.238118,
    "latitude": -76.10365
  },
  {
    "areaCode": 276,
    "longitude": 37.55376,
    "latitude": -77.46026
  },
  {
    "areaCode": 281,
    "longitude": 29.70917889,
    "latitude": -95.30039889
  },
  {
    "areaCode": 301,
    "longitude": 39.047505,
    "latitude": -77.12127929
  },
  {
    "areaCode": 302,
    "longitude": 39.52928,
    "latitude": -75.60687333
  },
  {
    "areaCode": 303,
    "longitude": 39.77755625,
    "latitude": -105.0026667
  },
  {
    "areaCode": 304,
    "longitude": 39.361145,
    "latitude": -81.16209333
  },
  {
    "areaCode": 305,
    "longitude": 25.74041704,
    "latitude": -80.35898037
  },
  {
    "areaCode": 307,
    "longitude": 42.4022675,
    "latitude": -105.5566625
  },
  {
    "areaCode": 308,
    "longitude": 40.91612,
    "latitude": -99.39630333
  },
  {
    "areaCode": 309,
    "longitude": 40.93229,
    "latitude": -89.85594333
  },
  {
    "areaCode": 310,
    "longitude": 33.89912813,
    "latitude": -118.3529044
  },
  {
    "areaCode": 312,
    "longitude": 41.88475,
    "latitude": -88.20396
  },
  {
    "areaCode": 313,
    "longitude": 42.31222889,
    "latitude": -83.20119111
  },
  {
    "areaCode": 314,
    "longitude": 38.64949667,
    "latitude": -90.32305333
  },
  {
    "areaCode": 315,
    "longitude": 43.253676,
    "latitude": -75.862524
  },
  {
    "areaCode": 316,
    "longitude": 37.69224,
    "latitude": -97.33754
  },
  {
    "areaCode": 317,
    "longitude": 39.86670667,
    "latitude": -86.07174333
  },
  {
    "areaCode": 318,
    "longitude": 32.278824,
    "latitude": -92.942602
  },
  {
    "areaCode": 319,
    "longitude": 41.92194833,
    "latitude": -91.77887833
  },
  {
    "areaCode": 320,
    "longitude": 45.5608,
    "latitude": -94.16249
  },
  {
    "areaCode": 321,
    "longitude": 28.3756865,
    "latitude": -81.1535335
  },
  {
    "areaCode": 323,
    "longitude": 33.98717818,
    "latitude": -118.2120055
  },
  {
    "areaCode": 325,
    "longitude": 31.956255,
    "latitude": -100.08509
  },
  {
    "areaCode": 330,
    "longitude": 41.06350444,
    "latitude": -81.31462611
  },
  {
    "areaCode": 331,
    "longitude": 41.8771732,
    "latitude": -88.0948236
  },
  {
    "areaCode": 334,
    "longitude": 32.187855,
    "latitude": -85.86078875
  },
  {
    "areaCode": 336,
    "longitude": 35.986358,
    "latitude": -79.858592
  },
  {
    "areaCode": 337,
    "longitude": 30.242168,
    "latitude": -92.500372
  },
  {
    "areaCode": 339,
    "longitude": 42.38921565,
    "latitude": -71.10036565
  },
  {
    "areaCode": 346,
    "longitude": 29.70917889,
    "latitude": -95.30039889
  },
  {
    "areaCode": 347,
    "longitude": 40.691608,
    "latitude": -73.959668
  },
  {
    "areaCode": 351,
    "longitude": 42.60368286,
    "latitude": -71.22620857
  },
  {
    "areaCode": 352,
    "longitude": 28.372005,
    "latitude": -81.7805925
  },
  {
    "areaCode": 360,
    "longitude": 47.41118222,
    "latitude": -122.5702911
  },
  {
    "areaCode": 361,
    "longitude": 28.04057333,
    "latitude": -97.41869667
  },
  {
    "areaCode": 364,
    "longitude": 37.44057,
    "latitude": -87.00663143
  },
  {
    "areaCode": 385,
    "longitude": 40.65385643,
    "latitude": -111.8801921
  },
  {
    "areaCode": 386,
    "longitude": 29.16779857,
    "latitude": -81.11085143
  },
  {
    "areaCode": 401,
    "longitude": 41.773583,
    "latitude": -71.418123
  },
  {
    "areaCode": 402,
    "longitude": 41.23897143,
    "latitude": -96.88106286
  },
  {
    "areaCode": 404,
    "longitude": 33.73466889,
    "latitude": -84.37236667
  },
  {
    "areaCode": 405,
    "longitude": 35.504228,
    "latitude": -97.413675
  },
  {
    "areaCode": 406,
    "longitude": 46.40531,
    "latitude": -111.567485
  },
  {
    "areaCode": 407,
    "longitude": 28.39369067,
    "latitude": -81.30824933
  },
  {
    "areaCode": 408,
    "longitude": 37.26716556,
    "latitude": -121.8848322
  },
  {
    "areaCode": 409,
    "longitude": 29.66411,
    "latitude": -94.436145
  },
  {
    "areaCode": 410,
    "longitude": 39.24997871,
    "latitude": -76.58799065
  },
  {
    "areaCode": 412,
    "longitude": 40.39926667,
    "latitude": -79.91952778
  },
  {
    "areaCode": 413,
    "longitude": 42.19644625,
    "latitude": -72.713425
  },
  {
    "areaCode": 414,
    "longitude": 42.94616571,
    "latitude": -87.95000714
  },
  {
    "areaCode": 415,
    "longitude": 37.927565,
    "latitude": -122.517545
  },
  {
    "areaCode": 417,
    "longitude": 37.14978,
    "latitude": -93.90576
  },
  {
    "areaCode": 419,
    "longitude": 41.12878286,
    "latitude": -83.21476
  },
  {
    "areaCode": 423,
    "longitude": 35.84167714,
    "latitude": -83.68173
  },
  {
    "areaCode": 424,
    "longitude": 33.89912813,
    "latitude": -118.3529044
  },
  {
    "areaCode": 425,
    "longitude": 47.73323929,
    "latitude": -121.8640779
  },
  {
    "areaCode": 432,
    "longitude": 32.03003333,
    "latitude": -102.01847
  },
  {
    "areaCode": 434,
    "longitude": 37.33949333,
    "latitude": -79.01659333
  },
  {
    "areaCode": 435,
    "longitude": 39.270445,
    "latitude": -112.68724
  },
  {
    "areaCode": 440,
    "longitude": 41.47965933,
    "latitude": -81.69733133
  },
  {
    "areaCode": 442,
    "longitude": 33.6695681,
    "latitude": -116.7581124
  },
  {
    "areaCode": 443,
    "longitude": 39.24997871,
    "latitude": -76.58799065
  },
  {
    "areaCode": 458,
    "longitude": 43.77279625,
    "latitude": -123.1944163
  },
  {
    "areaCode": 469,
    "longitude": 32.86905783,
    "latitude": -96.82601565
  },
  {
    "areaCode": 478,
    "longitude": 32.730835,
    "latitude": -83.61615
  },
  {
    "areaCode": 479,
    "longitude": 35.849136,
    "latitude": -93.987424
  },
  {
    "areaCode": 480,
    "longitude": 33.43175143,
    "latitude": -111.7910643
  },
  {
    "areaCode": 484,
    "longitude": 40.251023,
    "latitude": -75.457804
  },
  {
    "areaCode": 501,
    "longitude": 34.76818714,
    "latitude": -92.42182286
  },
  {
    "areaCode": 502,
    "longitude": 38.227575,
    "latitude": -85.316345
  },
  {
    "areaCode": 503,
    "longitude": 45.34785933,
    "latitude": -122.7965427
  },
  {
    "areaCode": 504,
    "longitude": 29.94127286,
    "latitude": -90.09217714
  },
  {
    "areaCode": 505,
    "longitude": 35.54517333,
    "latitude": -107.1487933
  },
  {
    "areaCode": 507,
    "longitude": 44.04838833,
    "latitude": -92.93543
  },
  {
    "areaCode": 508,
    "longitude": 42.00699273,
    "latitude": -71.22419455
  },
  {
    "areaCode": 509,
    "longitude": 46.76512444,
    "latitude": -118.7341211
  },
  {
    "areaCode": 510,
    "longitude": 37.43248,
    "latitude": -121.8074523
  },
  {
    "areaCode": 512,
    "longitude": 30.359314,
    "latitude": -97.772174
  },
  {
    "areaCode": 513,
    "longitude": 39.34930286,
    "latitude": -84.49883429
  },
  {
    "areaCode": 515,
    "longitude": 41.840495,
    "latitude": -93.75476
  },
  {
    "areaCode": 516,
    "longitude": 40.70185474,
    "latitude": -73.59814053
  },
  {
    "areaCode": 517,
    "longitude": 42.48702833,
    "latitude": -84.13755167
  },
  {
    "areaCode": 518,
    "longitude": 42.819186,
    "latitude": -73.833068
  },
  {
    "areaCode": 520,
    "longitude": 32.11801571,
    "latitude": -110.9764843
  },
  {
    "areaCode": 530,
    "longitude": 39.33882286,
    "latitude": -121.5665943
  },
  {
    "areaCode": 531,
    "longitude": 41.23897143,
    "latitude": -96.88106286
  },
  {
    "areaCode": 539,
    "longitude": 36.1754425,
    "latitude": -95.783525
  },
  {
    "areaCode": 540,
    "longitude": 37.82954143,
    "latitude": -79.50405714
  },
  {
    "areaCode": 541,
    "longitude": 43.77279625,
    "latitude": -123.1944163
  },
  {
    "areaCode": 551,
    "longitude": 40.83885,
    "latitude": -74.04567813
  },
  {
    "areaCode": 559,
    "longitude": 36.50766,
    "latitude": -119.5360325
  },
  {
    "areaCode": 561,
    "longitude": 26.55579333,
    "latitude": -80.13544083
  },
  {
    "areaCode": 562,
    "longitude": 33.89795286,
    "latitude": -118.0842771
  },
  {
    "areaCode": 563,
    "longitude": 41.763524,
    "latitude": -90.59797
  },
  {
    "areaCode": 567,
    "longitude": 41.12878286,
    "latitude": -83.21476
  },
  {
    "areaCode": 570,
    "longitude": 41.238118,
    "latitude": -76.10365
  },
  {
    "areaCode": 571,
    "longitude": 38.8324725,
    "latitude": -77.270965
  },
  {
    "areaCode": 573,
    "longitude": 38.27809667,
    "latitude": -91.34191333
  },
  {
    "areaCode": 574,
    "longitude": 41.672602,
    "latitude": -86.066116
  },
  {
    "areaCode": 575,
    "longitude": 33.02238333,
    "latitude": -104.6389383
  },
  {
    "areaCode": 580,
    "longitude": 35.17099167,
    "latitude": -97.964955
  },
  {
    "areaCode": 585,
    "longitude": 43.17191333,
    "latitude": -77.58194333
  },
  {
    "areaCode": 586,
    "longitude": 42.53975857,
    "latitude": -82.97031714
  },
  {
    "areaCode": 601,
    "longitude": 32.19705429,
    "latitude": -89.96107286
  },
  {
    "areaCode": 602,
    "longitude": 33.44838,
    "latitude": -112.07404
  },
  {
    "areaCode": 603,
    "longitude": 43.04893875,
    "latitude": -71.33472
  },
  {
    "areaCode": 605,
    "longitude": 44.472588,
    "latitude": -99.176772
  },
  {
    "areaCode": 606,
    "longitude": 38.47841,
    "latitude": -82.63794
  },
  {
    "areaCode": 607,
    "longitude": 42.20970667,
    "latitude": -76.40743667
  },
  {
    "areaCode": 608,
    "longitude": 43.042495,
    "latitude": -89.563915
  },
  {
    "areaCode": 609,
    "longitude": 39.9697625,
    "latitude": -74.7087
  },
  {
    "areaCode": 610,
    "longitude": 40.251023,
    "latitude": -75.457804
  },
  {
    "areaCode": 612,
    "longitude": 44.9708,
    "latitude": -93.32084
  },
  {
    "areaCode": 614,
    "longitude": 40.008745,
    "latitude": -83.0058775
  },
  {
    "areaCode": 615,
    "longitude": 36.10672375,
    "latitude": -86.5878425
  },
  {
    "areaCode": 616,
    "longitude": 42.915765,
    "latitude": -85.73082
  },
  {
    "areaCode": 617,
    "longitude": 42.34858182,
    "latitude": -71.10012727
  },
  {
    "areaCode": 618,
    "longitude": 38.56595375,
    "latitude": -89.9325675
  },
  {
    "areaCode": 619,
    "longitude": 32.72058333,
    "latitude": -117.0466042
  },
  {
    "areaCode": 620,
    "longitude": 38.0473075,
    "latitude": -98.7502925
  },
  {
    "areaCode": 623,
    "longitude": 33.5849,
    "latitude": -112.2981217
  },
  {
    "areaCode": 626,
    "longitude": 34.0783752,
    "latitude": -118.0051808
  },
  {
    "areaCode": 628,
    "longitude": 37.927565,
    "latitude": -122.517545
  },
  {
    "areaCode": 629,
    "longitude": 36.10672375,
    "latitude": -86.5878425
  },
  {
    "areaCode": 630,
    "longitude": 41.8771732,
    "latitude": -88.0948236
  },
  {
    "areaCode": 631,
    "longitude": 40.79404826,
    "latitude": -73.20643
  },
  {
    "areaCode": 636,
    "longitude": 38.70597833,
    "latitude": -90.598965
  },
  {
    "areaCode": 641,
    "longitude": 42.07433667,
    "latitude": -92.84010667
  },
  {
    "areaCode": 646,
    "longitude": 40.71427,
    "latitude": -74.00597
  },
  {
    "areaCode": 650,
    "longitude": 37.53483375,
    "latitude": -122.2846556
  },
  {
    "areaCode": 651,
    "longitude": 44.91242571,
    "latitude": -93.08408786
  },
  {
    "areaCode": 657,
    "longitude": 33.80470067,
    "latitude": -117.9245227
  },
  {
    "areaCode": 660,
    "longitude": 38.70446,
    "latitude": -93.22826
  },
  {
    "areaCode": 661,
    "longitude": 35.11786571,
    "latitude": -118.7745786
  },
  {
    "areaCode": 662,
    "longitude": 34.10931429,
    "latitude": -89.63233286
  },
  {
    "areaCode": 667,
    "longitude": 39.24997871,
    "latitude": -76.58799065
  },
  {
    "areaCode": 669,
    "longitude": 37.26716556,
    "latitude": -121.8848322
  },
  {
    "areaCode": 678,
    "longitude": 33.81447478,
    "latitude": -84.36085522
  },
  {
    "areaCode": 681,
    "longitude": 39.361145,
    "latitude": -81.16209333
  },
  {
    "areaCode": 682,
    "longitude": 32.75957533,
    "latitude": -97.22340333
  },
  {
    "areaCode": 701,
    "longitude": 47.4602675,
    "latitude": -99.003305
  },
  {
    "areaCode": 702,
    "longitude": 36.14052714,
    "latitude": -115.1143643
  },
  {
    "areaCode": 703,
    "longitude": 38.8324725,
    "latitude": -77.270965
  },
  {
    "areaCode": 704,
    "longitude": 35.36768556,
    "latitude": -80.74773778
  },
  {
    "areaCode": 706,
    "longitude": 33.63948429,
    "latitude": -83.94034
  },
  {
    "areaCode": 707,
    "longitude": 38.51422909,
    "latitude": -122.5273573
  },
  {
    "areaCode": 708,
    "longitude": 41.70573476,
    "latitude": -87.72693048
  },
  {
    "areaCode": 712,
    "longitude": 41.880965,
    "latitude": -96.13057
  },
  {
    "areaCode": 713,
    "longitude": 29.70917889,
    "latitude": -95.30039889
  },
  {
    "areaCode": 714,
    "longitude": 33.80470067,
    "latitude": -117.9245227
  },
  {
    "areaCode": 715,
    "longitude": 45.25371,
    "latitude": -90.7018125
  },
  {
    "areaCode": 716,
    "longitude": 42.87564,
    "latitude": -78.89547375
  },
  {
    "areaCode": 717,
    "longitude": 40.1537775,
    "latitude": -76.582255
  },
  {
    "areaCode": 718,
    "longitude": 40.691608,
    "latitude": -73.959668
  },
  {
    "areaCode": 719,
    "longitude": 38.64372,
    "latitude": -104.7528333
  },
  {
    "areaCode": 720,
    "longitude": 39.77755625,
    "latitude": -105.0026667
  },
  {
    "areaCode": 724,
    "longitude": 40.565275,
    "latitude": -79.9919975
  },
  {
    "areaCode": 725,
    "longitude": 36.14052714,
    "latitude": -115.1143643
  },
  {
    "areaCode": 727,
    "longitude": 28.006899,
    "latitude": -82.736329
  },
  {
    "areaCode": 731,
    "longitude": 35.61452,
    "latitude": -88.81395
  },
  {
    "areaCode": 732,
    "longitude": 40.42072143,
    "latitude": -74.32367929
  },
  {
    "areaCode": 734,
    "longitude": 42.25120273,
    "latitude": -83.41347636
  },
  {
    "areaCode": 737,
    "longitude": 30.359314,
    "latitude": -97.772174
  },
  {
    "areaCode": 740,
    "longitude": 39.74919875,
    "latitude": -82.66145
  },
  {
    "areaCode": 743,
    "longitude": 35.986358,
    "latitude": -79.858592
  },
  {
    "areaCode": 747,
    "longitude": 34.186115,
    "latitude": -118.4355433
  },
  {
    "areaCode": 754,
    "longitude": 26.14313842,
    "latitude": -80.20192526
  },
  {
    "areaCode": 757,
    "longitude": 36.87017143,
    "latitude": -76.31351429
  },
  {
    "areaCode": 760,
    "longitude": 33.6695681,
    "latitude": -116.7581124
  },
  {
    "areaCode": 762,
    "longitude": 33.63948429,
    "latitude": -83.94034
  },
  {
    "areaCode": 763,
    "longitude": 45.09851444,
    "latitude": -93.35914889
  },
  {
    "areaCode": 765,
    "longitude": 40.28916857,
    "latitude": -85.93796143
  },
  {
    "areaCode": 769,
    "longitude": 32.19705429,
    "latitude": -89.96107286
  },
  {
    "areaCode": 770,
    "longitude": 33.8336605,
    "latitude": -84.3569235
  },
  {
    "areaCode": 772,
    "longitude": 27.37194,
    "latitude": -80.3461
  },
  {
    "areaCode": 773,
    "longitude": 41.88475,
    "latitude": -88.20396
  },
  {
    "areaCode": 774,
    "longitude": 42.00699273,
    "latitude": -71.22419455
  },
  {
    "areaCode": 775,
    "longitude": 38.6091575,
    "latitude": -118.82945
  },
  {
    "areaCode": 779,
    "longitude": 42.05086917,
    "latitude": -88.6227275
  },
  {
    "areaCode": 781,
    "longitude": 42.38921565,
    "latitude": -71.10036565
  },
  {
    "areaCode": 785,
    "longitude": 38.984614,
    "latitude": -96.88463
  },
  {
    "areaCode": 786,
    "longitude": 25.74041704,
    "latitude": -80.35898037
  },
  {
    "areaCode": 801,
    "longitude": 40.65385643,
    "latitude": -111.8801921
  },
  {
    "areaCode": 802,
    "longitude": 44.363525,
    "latitude": -72.873175
  },
  {
    "areaCode": 803,
    "longitude": 34.08893,
    "latitude": -81.057868
  },
  {
    "areaCode": 804,
    "longitude": 37.456984,
    "latitude": -77.415816
  },
  {
    "areaCode": 805,
    "longitude": 34.60204125,
    "latitude": -119.6962594
  },
  {
    "areaCode": 806,
    "longitude": 34.32821667,
    "latitude": -101.79777
  },
  {
    "areaCode": 808,
    "longitude": 20.95603556,
    "latitude": -157.2379267
  },
  {
    "areaCode": 810,
    "longitude": 42.99428667,
    "latitude": -83.24290333
  },
  {
    "areaCode": 812,
    "longitude": 38.66688,
    "latitude": -86.39125714
  },
  {
    "areaCode": 813,
    "longitude": 28.04743889,
    "latitude": -82.42785889
  },
  {
    "areaCode": 814,
    "longitude": 40.9420075,
    "latitude": -78.8154425
  },
  {
    "areaCode": 815,
    "longitude": 42.05086917,
    "latitude": -88.6227275
  },
  {
    "areaCode": 816,
    "longitude": 39.104366,
    "latitude": -94.500676
  },
  {
    "areaCode": 817,
    "longitude": 32.75957533,
    "latitude": -97.22340333
  },
  {
    "areaCode": 818,
    "longitude": 34.186115,
    "latitude": -118.4355433
  },
  {
    "areaCode": 828,
    "longitude": 35.66707,
    "latitude": -81.94761
  },
  {
    "areaCode": 830,
    "longitude": 29.478228,
    "latitude": -99.325156
  },
  {
    "areaCode": 831,
    "longitude": 36.75860714,
    "latitude": -121.7704657
  },
  {
    "areaCode": 832,
    "longitude": 29.70917889,
    "latitude": -95.30039889
  },
  {
    "areaCode": 843,
    "longitude": 33.0913225,
    "latitude": -79.901955
  },
  {
    "areaCode": 845,
    "longitude": 41.47292,
    "latitude": -74.06412333
  },
  {
    "areaCode": 847,
    "longitude": 42.14730875,
    "latitude": -87.94760563
  },
  {
    "areaCode": 848,
    "longitude": 40.42072143,
    "latitude": -74.32367929
  },
  {
    "areaCode": 850,
    "longitude": 30.41866889,
    "latitude": -86.61346
  },
  {
    "areaCode": 856,
    "longitude": 39.73721857,
    "latitude": -75.05378571
  },
  {
    "areaCode": 857,
    "longitude": 42.34858182,
    "latitude": -71.10012727
  },
  {
    "areaCode": 858,
    "longitude": 32.96282,
    "latitude": -117.03586
  },
  {
    "areaCode": 859,
    "longitude": 38.4547925,
    "latitude": -84.4768825
  },
  {
    "areaCode": 860,
    "longitude": 41.67400917,
    "latitude": -72.64104167
  },
  {
    "areaCode": 862,
    "longitude": 40.82511286,
    "latitude": -74.21640333
  },
  {
    "areaCode": 863,
    "longitude": 28.030855,
    "latitude": -81.84133
  },
  {
    "areaCode": 864,
    "longitude": 34.72085833,
    "latitude": -82.29456333
  },
  {
    "areaCode": 865,
    "longitude": 35.9344575,
    "latitude": -84.10762
  },
  {
    "areaCode": 870,
    "longitude": 34.65417167,
    "latitude": -91.68221833
  },
  {
    "areaCode": 878,
    "longitude": 40.459707,
    "latitude": -79.962276
  },
  {
    "areaCode": 901,
    "longitude": 35.120715,
    "latitude": -89.849395
  },
  {
    "areaCode": 903,
    "longitude": 33.01201111,
    "latitude": -95.52637667
  },
  {
    "areaCode": 904,
    "longitude": 30.25227667,
    "latitude": -81.60564667
  },
  {
    "areaCode": 907,
    "longitude": 60.26835333,
    "latitude": -141.136315
  },
  {
    "areaCode": 908,
    "longitude": 40.66289727,
    "latitude": -74.28977364
  },
  {
    "areaCode": 909,
    "longitude": 34.074295,
    "latitude": -117.5405572
  },
  {
    "areaCode": 910,
    "longitude": 34.757956,
    "latitude": -78.453958
  },
  {
    "areaCode": 912,
    "longitude": 32.12640333,
    "latitude": -81.49298333
  },
  {
    "areaCode": 913,
    "longitude": 39.0303175,
    "latitude": -94.718015
  },
  {
    "areaCode": 914,
    "longitude": 41.026625,
    "latitude": -73.8051675
  },
  {
    "areaCode": 915,
    "longitude": 31.70664,
    "latitude": -106.39512
  },
  {
    "areaCode": 916,
    "longitude": 38.54004235,
    "latitude": -121.3983159
  },
  {
    "areaCode": 917,
    "longitude": 40.695385,
    "latitude": -73.967385
  },
  {
    "areaCode": 918,
    "longitude": 36.1754425,
    "latitude": -95.783525
  },
  {
    "areaCode": 919,
    "longitude": 35.72614286,
    "latitude": -78.77469
  },
  {
    "areaCode": 920,
    "longitude": 43.948076,
    "latitude": -88.281434
  },
  {
    "areaCode": 925,
    "longitude": 37.89177667,
    "latitude": -121.935052
  },
  {
    "areaCode": 928,
    "longitude": 34.3190475,
    "latitude": -113.5519425
  },
  {
    "areaCode": 929,
    "longitude": 40.691608,
    "latitude": -73.959668
  },
  {
    "areaCode": 930,
    "longitude": 38.66688,
    "latitude": -86.39125714
  },
  {
    "areaCode": 931,
    "longitude": 36.10256,
    "latitude": -86.63212333
  },
  {
    "areaCode": 936,
    "longitude": 30.99429,
    "latitude": -95.097855
  },
  {
    "areaCode": 937,
    "longitude": 39.85426692,
    "latitude": -84.11555769
  },
  {
    "areaCode": 940,
    "longitude": 33.39159333,
    "latitude": -97.54021
  },
  {
    "areaCode": 941,
    "longitude": 27.20213333,
    "latitude": -82.34435167
  },
  {
    "areaCode": 947,
    "longitude": 42.54372462,
    "latitude": -83.26242846
  },
  {
    "areaCode": 949,
    "longitude": 33.57348615,
    "latitude": -117.7337162
  },
  {
    "areaCode": 951,
    "longitude": 33.819667,
    "latitude": -117.258786
  },
  {
    "areaCode": 952,
    "longitude": 44.838195,
    "latitude": -93.4117575
  },
  {
    "areaCode": 954,
    "longitude": 26.14313842,
    "latitude": -80.20192526
  },
  {
    "areaCode": 956,
    "longitude": 26.299599,
    "latitude": -98.138061
  },
  {
    "areaCode": 959,
    "longitude": 41.67400917,
    "latitude": -72.64104167
  },
  {
    "areaCode": 970,
    "longitude": 40.11755,
    "latitude": -105.854795
  },
  {
    "areaCode": 971,
    "longitude": 45.34785933,
    "latitude": -122.7965427
  },
  {
    "areaCode": 972,
    "longitude": 32.86905783,
    "latitude": -96.82601565
  },
  {
    "areaCode": 973,
    "longitude": 40.83461737,
    "latitude": -74.21941579
  },
  {
    "areaCode": 978,
    "longitude": 42.60368286,
    "latitude": -71.22620857
  },
  {
    "areaCode": 979,
    "longitude": 30.11206667,
    "latitude": -96.04625333
  },
  {
    "areaCode": 980,
    "longitude": 35.36768556,
    "latitude": -80.74773778
  },
  {
    "areaCode": 984,
    "longitude": 35.72614286,
    "latitude": -78.77469
  },
  {
    "areaCode": 985,
    "longitude": 29.97931333,
    "latitude": -90.32739
  },
  {
    "areaCode": 989,
    "longitude": 43.52936,
    "latitude": -84.16104
  },
  {
    "areaCode": 854,
    "longitude": 33.0913225,
    "latitude": -79.901955
  }
]